ISS OBJECT XX           
1 66911U 98067XX  26067.56455839  .00301889  00000+0  19397-2 0  9998
2 66911  51.6209  69.8598 0006997  75.4922 284.6853 15.74751003 15019
ISS OBJECT XY           
1 66912U 98067XY  26067.23940008  .00130266  00000+0  13699-2 0  9998
2 66912  51.6269  74.4704 0003151  80.3151 279.8199 15.63375791 14927
ISS OBJECT XZ           
1 67683U 98067XZ  26067.24642413  .00054128  00000+0  89298-3 0  9995
2 67683  51.6305  79.0203 0009421 180.7238 179.3740 15.51696524  4568
GXIBA-1                 
1 67684U 98067YA  26067.28573024  .00113172  00000+0  16924-2 0  9991
2 67684  51.6303  78.5330 0010947 170.9783 189.1406 15.54070328  4573
CORAL                   
1 67685U 98067YB  26067.62864861  .00058319  00000+0  94707-3 0  9999
2 67685  51.6311  77.0726 0011361 178.8737 181.2281 15.52082391  4624
ISS OBJECT YC           
1 67686U 98067YC  26067.49475580  .00069722  00000+0  11105-2 0  9991
2 67686  51.6310  77.6801 0007925 145.9342 214.2158 15.52582009  4601
LEOPARD                 
1 67687U 98067YD  26067.30864436  .00058789  00000+0  96299-3 0  9993
2 67687  51.6314  78.6871 0007824 149.3708 210.7740 15.51875609  4491
ISS OBJECT YE           
1 67688U 98067YE  26067.49706267  .00065076  00000+0  10466-2 0  9999
2 67688  51.6311  77.6953 0007866 146.9330 213.2153 15.52342868  4526
CREW DRAGON 12          
1 67796U 26031A   26067.41623043  .00011291  00000+0  21617-3 0  9994
2 67796  51.6319  78.6521 0008065 170.0958 190.0190 15.48526204556025
